ATLAS CENTAUR R/B       
1 06155U 72065B   26056.26101857  .00001324  00000+0  18336-3 0  9999
2 06155  35.0027  18.5863 0034460 265.5448  94.1315 14.77645706839424
SL-8 R/B                
1 08459U 75112B   26056.39972824  .00000174  00000+0  65877-4 0  9993
2 08459  74.0603  41.5196 0014741 139.6141 220.6110 14.38195545630103
SL-3 R/B                
1 10114U 77057B   26056.48033082  .00012302  00000+0  26176-3 0  9992
2 10114  97.5757 227.8685 0006711 335.2278  24.8647 15.45099462666444
SEASAT 1                
1 10967U 78064A   26056.04506930  .00000169  00000+0  85631-4 0  9996
2 10967 108.0140  98.9651 0002002 290.7088  69.3843 14.46148978504683
SL-14 R/B               
1 11267U 79011B   26056.50782751  .00000526  00000+0  49395-4 0  9995
2 11267  82.5227 108.1322 0017625  97.8157 262.5064 14.91891828526964
SL-8 R/B                
1 11574U 79089B   26056.46885881  .00000223  00000+0  75330-4 0  9996
2 11574  74.0681 113.6675 0017035 287.6056  72.3239 14.42342224434347
SL-14 R/B               
1 11672U 80005B   26056.24438037  .00000578  00000+0  55910-4 0  9993
2 11672  82.5165 319.0395 0015052 199.6834 160.3806 14.90913065474635
SL-8 R/B                
1 12139U 81003B   26056.15043484  .00014931  00000+0  38907-3 0  9993
2 12139  82.9396 301.6143 0262714 222.2187 135.8555 15.10456588312785
SL-3 R/B                
1 12465U 81046B   26056.32375265  .00011763  00000+0  27655-3 0  9994
2 12465  81.2323 304.5879 0020520  63.5806 296.7539 15.41627265436522
SL-3 R/B                
1 12904U 81103B   26056.47252509  .00005403  00000+0  24066-3 0  9994
2 12904  81.1570 227.7632 0012797 330.1012  29.9487 15.21206813971370
SL-3 R/B                
1 13068U 82013B   26056.42003929  .00004995  00000+0  21714-3 0  9994
2 13068  81.1758 175.1464 0021995 219.1484 140.8158 15.21865426402488
SL-3 R/B                
1 13154U 82039B   26056.46430595  .00002355  00000+0  14210-3 0  9996
2 13154  81.1587 230.0555 0029962   4.3609 355.7871 15.09999246379791
