CCSDS_OMM_VERS = 2.0
CREATION_DATE  = 
ORIGINATOR     = 

OBJECT_NAME    = ATLAS CENTAUR R/B
OBJECT_ID      = 1972-065B
CENTER_NAME    = EARTH
REF_FRAME      = TEME
TIME_SYSTEM    = UTC
MEAN_ELEMENT_THEORY = SGP/SGP4

EPOCH          = 2026-02-25T06:15:52.004448
MEAN_MOTION    = 14.77645706
ECCENTRICITY   = .003446
INCLINATION    = 35.0027
RA_OF_ASC_NODE = 18.5863
ARG_OF_PERICENTER = 265.5448
MEAN_ANOMALY   = 94.1315

EPHEMERIS_TYPE = 0
CLASSIFICATION_TYPE = U
NORAD_CAT_ID   = 6155
ELEMENT_SET_NO = 999
REV_AT_EPOCH   = 83942
BSTAR          = .18336E-3
MEAN_MOTION_DOT = .1324E-4
MEAN_MOTION_DDOT = 0

CCSDS_OMM_VERS = 2.0
CREATION_DATE  = 
ORIGINATOR     = 

OBJECT_NAME    = SL-8 R/B
OBJECT_ID      = 1975-112B
CENTER_NAME    = EARTH
REF_FRAME      = TEME
TIME_SYSTEM    = UTC
MEAN_ELEMENT_THEORY = SGP/SGP4

EPOCH          = 2026-02-25T09:35:36.519936
MEAN_MOTION    = 14.38195545
ECCENTRICITY   = .0014741
INCLINATION    = 74.0603
RA_OF_ASC_NODE = 41.5196
ARG_OF_PERICENTER = 139.6141
MEAN_ANOMALY   = 220.6110

EPHEMERIS_TYPE = 0
CLASSIFICATION_TYPE = U
NORAD_CAT_ID   = 8459
ELEMENT_SET_NO = 999
REV_AT_EPOCH   = 63010
BSTAR          = .65877E-4
MEAN_MOTION_DOT = .174E-5
MEAN_MOTION_DDOT = 0

CCSDS_OMM_VERS = 2.0
CREATION_DATE  = 
ORIGINATOR     = 

OBJECT_NAME    = SL-3 R/B
OBJECT_ID      = 1977-057B
CENTER_NAME    = EARTH
REF_FRAME      = TEME
TIME_SYSTEM    = UTC
MEAN_ELEMENT_THEORY = SGP/SGP4

EPOCH          = 2026-02-25T11:31:40.582848
MEAN_MOTION    = 15.45099462
ECCENTRICITY   = .0006711
INCLINATION    = 97.5757
RA_OF_ASC_NODE = 227.8685
ARG_OF_PERICENTER = 335.2278
MEAN_ANOMALY   = 24.8647

EPHEMERIS_TYPE = 0
CLASSIFICATION_TYPE = U
NORAD_CAT_ID   = 10114
ELEMENT_SET_NO = 999
REV_AT_EPOCH   = 66644
BSTAR          = .26176E-3
MEAN_MOTION_DOT = .12302E-3
MEAN_MOTION_DDOT = 0

CCSDS_OMM_VERS = 2.0
CREATION_DATE  = 
ORIGINATOR     = 

OBJECT_NAME    = SEASAT 1
OBJECT_ID      = 1978-064A
CENTER_NAME    = EARTH
REF_FRAME      = TEME
TIME_SYSTEM    = UTC
MEAN_ELEMENT_THEORY = SGP/SGP4

EPOCH          = 2026-02-25T01:04:53.987520
MEAN_MOTION    = 14.46148978
ECCENTRICITY   = .00020025
INCLINATION    = 108.0140
RA_OF_ASC_NODE = 98.9651
ARG_OF_PERICENTER = 290.7088
MEAN_ANOMALY   = 69.3843

EPHEMERIS_TYPE = 0
CLASSIFICATION_TYPE = U
NORAD_CAT_ID   = 10967
ELEMENT_SET_NO = 999
REV_AT_EPOCH   = 50468
BSTAR          = .85630772E-4
MEAN_MOTION_DOT = .169E-5
MEAN_MOTION_DDOT = 0

CCSDS_OMM_VERS = 2.0
CREATION_DATE  = 
ORIGINATOR     = 

OBJECT_NAME    = SL-14 R/B
OBJECT_ID      = 1979-011B
CENTER_NAME    = EARTH
REF_FRAME      = TEME
TIME_SYSTEM    = UTC
MEAN_ELEMENT_THEORY = SGP/SGP4

EPOCH          = 2026-02-25T12:11:16.296864
MEAN_MOTION    = 14.91891828
ECCENTRICITY   = .0017625
INCLINATION    = 82.5227
RA_OF_ASC_NODE = 108.1322
ARG_OF_PERICENTER = 97.8157
MEAN_ANOMALY   = 262.5064

EPHEMERIS_TYPE = 0
CLASSIFICATION_TYPE = U
NORAD_CAT_ID   = 11267
ELEMENT_SET_NO = 999
REV_AT_EPOCH   = 52696
BSTAR          = .49395E-4
MEAN_MOTION_DOT = .526E-5
MEAN_MOTION_DDOT = 0

CCSDS_OMM_VERS = 2.0
CREATION_DATE  = 
ORIGINATOR     = 

OBJECT_NAME    = SL-8 R/B
OBJECT_ID      = 1979-089B
CENTER_NAME    = EARTH
REF_FRAME      = TEME
TIME_SYSTEM    = UTC
MEAN_ELEMENT_THEORY = SGP/SGP4

EPOCH          = 2026-02-25T11:15:09.401184
MEAN_MOTION    = 14.42342224
ECCENTRICITY   = .0017035
INCLINATION    = 74.0681
RA_OF_ASC_NODE = 113.6675
ARG_OF_PERICENTER = 287.6056
MEAN_ANOMALY   = 72.3239

EPHEMERIS_TYPE = 0
CLASSIFICATION_TYPE = U
NORAD_CAT_ID   = 11574
ELEMENT_SET_NO = 999
REV_AT_EPOCH   = 43434
BSTAR          = .7533E-4
MEAN_MOTION_DOT = .223E-5
MEAN_MOTION_DDOT = 0

CCSDS_OMM_VERS = 2.0
CREATION_DATE  = 
ORIGINATOR     = 

OBJECT_NAME    = SL-14 R/B
OBJECT_ID      = 1980-005B
CENTER_NAME    = EARTH
REF_FRAME      = TEME
TIME_SYSTEM    = UTC
MEAN_ELEMENT_THEORY = SGP/SGP4

EPOCH          = 2026-02-25T05:51:54.463968
MEAN_MOTION    = 14.90913065
ECCENTRICITY   = .0015052
INCLINATION    = 82.5165
RA_OF_ASC_NODE = 319.0395
ARG_OF_PERICENTER = 199.6834
MEAN_ANOMALY   = 160.3806

EPHEMERIS_TYPE = 0
CLASSIFICATION_TYPE = U
NORAD_CAT_ID   = 11672
ELEMENT_SET_NO = 999
REV_AT_EPOCH   = 47463
BSTAR          = .5591E-4
MEAN_MOTION_DOT = .578E-5
MEAN_MOTION_DDOT = 0

CCSDS_OMM_VERS = 2.0
CREATION_DATE  = 
ORIGINATOR     = 

OBJECT_NAME    = SL-8 R/B
OBJECT_ID      = 1981-003B
CENTER_NAME    = EARTH
REF_FRAME      = TEME
TIME_SYSTEM    = UTC
MEAN_ELEMENT_THEORY = SGP/SGP4

EPOCH          = 2026-02-25T03:36:37.570176
MEAN_MOTION    = 15.10456588
ECCENTRICITY   = .02627144
INCLINATION    = 82.9396
RA_OF_ASC_NODE = 301.6143
ARG_OF_PERICENTER = 222.2187
MEAN_ANOMALY   = 135.8555

EPHEMERIS_TYPE = 0
CLASSIFICATION_TYPE = U
NORAD_CAT_ID   = 12139
ELEMENT_SET_NO = 999
REV_AT_EPOCH   = 31278
BSTAR          = .38906575E-3
MEAN_MOTION_DOT = .14931E-3
MEAN_MOTION_DDOT = 0

CCSDS_OMM_VERS = 2.0
CREATION_DATE  = 
ORIGINATOR     = 

OBJECT_NAME    = SL-3 R/B
OBJECT_ID      = 1981-046B
CENTER_NAME    = EARTH
REF_FRAME      = TEME
TIME_SYSTEM    = UTC
MEAN_ELEMENT_THEORY = SGP/SGP4

EPOCH          = 2026-02-25T07:46:12.228960
MEAN_MOTION    = 15.41627265
ECCENTRICITY   = .002052
INCLINATION    = 81.2323
RA_OF_ASC_NODE = 304.5879
ARG_OF_PERICENTER = 63.5806
MEAN_ANOMALY   = 296.7539

EPHEMERIS_TYPE = 0
CLASSIFICATION_TYPE = U
NORAD_CAT_ID   = 12465
ELEMENT_SET_NO = 999
REV_AT_EPOCH   = 43652
BSTAR          = .27655E-3
MEAN_MOTION_DOT = .11763E-3
MEAN_MOTION_DDOT = 0

CCSDS_OMM_VERS = 2.0
CREATION_DATE  = 
ORIGINATOR     = 

OBJECT_NAME    = SL-3 R/B
OBJECT_ID      = 1981-103B
CENTER_NAME    = EARTH
REF_FRAME      = TEME
TIME_SYSTEM    = UTC
MEAN_ELEMENT_THEORY = SGP/SGP4

EPOCH          = 2026-02-25T11:20:26.167776
MEAN_MOTION    = 15.21206813
ECCENTRICITY   = .0012797
INCLINATION    = 81.1570
RA_OF_ASC_NODE = 227.7632
ARG_OF_PERICENTER = 330.1012
MEAN_ANOMALY   = 29.9487

EPHEMERIS_TYPE = 0
CLASSIFICATION_TYPE = U
NORAD_CAT_ID   = 12904
ELEMENT_SET_NO = 999
REV_AT_EPOCH   = 97137
BSTAR          = .24066E-3
MEAN_MOTION_DOT = .5403E-4
MEAN_MOTION_DDOT = 0

CCSDS_OMM_VERS = 2.0
CREATION_DATE  = 
ORIGINATOR     = 

OBJECT_NAME    = SL-3 R/B
OBJECT_ID      = 1982-013B
CENTER_NAME    = EARTH
REF_FRAME      = TEME
TIME_SYSTEM    = UTC
MEAN_ELEMENT_THEORY = SGP/SGP4

EPOCH          = 2026-02-25T10:04:51.394656
MEAN_MOTION    = 15.21865426
ECCENTRICITY   = .0021995
INCLINATION    = 81.1758
RA_OF_ASC_NODE = 175.1464
ARG_OF_PERICENTER = 219.1484
MEAN_ANOMALY   = 140.8158

EPHEMERIS_TYPE = 0
CLASSIFICATION_TYPE = U
NORAD_CAT_ID   = 13068
ELEMENT_SET_NO = 999
REV_AT_EPOCH   = 40248
BSTAR          = .21714E-3
MEAN_MOTION_DOT = .4995E-4
MEAN_MOTION_DDOT = 0

CCSDS_OMM_VERS = 2.0
CREATION_DATE  = 
ORIGINATOR     = 

OBJECT_NAME    = SL-3 R/B
OBJECT_ID      = 1982-039B
CENTER_NAME    = EARTH
REF_FRAME      = TEME
TIME_SYSTEM    = UTC
MEAN_ELEMENT_THEORY = SGP/SGP4

EPOCH          = 2026-02-25T11:08:36.034080
MEAN_MOTION    = 15.09999246
ECCENTRICITY   = .0029962
INCLINATION    = 81.1587
RA_OF_ASC_NODE = 230.0555
ARG_OF_PERICENTER = 4.3609
MEAN_ANOMALY   = 355.7871

EPHEMERIS_TYPE = 0
CLASSIFICATION_TYPE = U
NORAD_CAT_ID   = 13154
ELEMENT_SET_NO = 999
REV_AT_EPOCH   = 37979
BSTAR          = .1421E-3
MEAN_MOTION_DOT = .2355E-4
MEAN_MOTION_DDOT = 0

